[{"OBJECT_NAME":"STARLINK-2746","OBJECT_ID":"2021-044AQ","EPOCH":"2026-03-09T12:58:15.089088","MEAN_MOTION":15.06413344,"ECCENTRICITY":0.00015298,"INCLINATION":53.0564,"RA_OF_ASC_NODE":112.2892,"ARG_OF_PERICENTER":98.1515,"MEAN_ANOMALY":261.9647,"EPHEMERIS_TYPE":0,"CLASSIFICATION_TYPE":"U","NORAD_CAT_ID":48676,"ELEMENT_SET_NO":999,"REV_AT_EPOCH":26382,"BSTAR":-1.4476566e-5,"MEAN_MOTION_DOT":-4.97e-6,"MEAN_MOTION_DDOT":0},{"OBJECT_NAME":"KUIPER-00153","OBJECT_ID":"2025-217M","EPOCH":"2026-03-09T22:00:01.999584","MEAN_MOTION":15.08685712,"ECCENTRICITY":0.00100607,"INCLINATION":51.8801,"RA_OF_ASC_NODE":26.4916,"ARG_OF_PERICENTER":321.9781,"MEAN_ANOMALY":312.405,"EPHEMERIS_TYPE":0,"CLASSIFICATION_TYPE":"U","NORAD_CAT_ID":65773,"ELEMENT_SET_NO":999,"REV_AT_EPOCH":517,"BSTAR":-0.00046487713,"MEAN_MOTION_DOT":-7.667e-5,"MEAN_MOTION_DDOT":0}]
